STARLINK-2449           
1 48112U 21027W   26068.50979626 -.00001510  00000+0 -38868-4 0  9999
2 48112  53.1597 168.6486 0001052 100.3978 259.7141 15.30193505272454
HYPERFIELD-1A           
1 60562U 24149CY  26068.76488211  .00008569  00000+0  30052-3 0  9998
2 60562  97.3842 149.5066 0003865 313.7844  46.3076 15.29681349 86836
